NORAD_CAT_ID,OBJECT_NAME,OBJECT_TYPE,EPOCH,MEAN_MOTION,ECCENTRICITY,INCLINATION,RA_OF_ASC_NODE,ARG_OF_PERICENTER,MEAN_ANOMALY,BSTAR,MEAN_MOTION_DOT,MEAN_MOTION_DDOT,TLE_LINE0,TLE_LINE1,TLE_LINE2,SEMIMAJOR_AXIS,PERIOD,APOGEE,PERIGEE,DECAYED
52111.0,STARLINK-3708,PAYLOAD,2023-09-27 01:02:08,15.08835774,0.0001257,53.2161,135.3464,97.0344,263.0791,0.00011722,1.578e-05,0.0,0 STARLINK-3708,1 52111U 22029Z   23270.04315952  .00001578  00000-0  11722-3 0  9995,2 52111  53.2161 135.3464 0001257  97.0344 263.0791 15.08835774 85726,6917.893,95.438,540.628,538.889,0.0
52111.0,STARLINK-3708,PAYLOAD,2023-09-27 18:31:24,15.08826787,0.0001476,53.2162,132.0728,120.4054,239.7084,0.00016697,2.369e-05,0.0,0 STARLINK-3708,1 52111U 22029Z   23270.77180829  .00002369  00000-0  16697-3 0  9993,2 52111  53.2162 132.0728 0001476 120.4054 239.7084 15.08826787 85837,6917.921,95.438,540.807,538.765,0.0
52111.0,STARLINK-3708,PAYLOAD,2023-09-28 15:11:25,15.0883988,0.0001371,53.2163,128.2065,121.2731,238.8395,0.00032298,4.856e-05,0.0,0 STARLINK-3708,1 52111U 22029Z   23271.63292860  .00004856  00000-0  32298-3 0  9996,2 52111  53.2163 128.2065 0001371 121.2731 238.8395 15.08839880 85961,6917.881,95.438,540.694,538.797,0.0
52111.0,STARLINK-3708,PAYLOAD,2023-09-28 18:22:11,15.08844158,0.0001326,53.2164,127.612,117.2793,242.8334,0.00037808,5.735e-05,0.0,0 STARLINK-3708,1 52111U 22029Z   23271.76540741  .00005735  00000-0  37808-3 0  9993,2 52111  53.2164 127.6120 0001326 117.2793 242.8334 15.08844158 85984,6917.868,95.437,540.65,538.815,0.0
52111.0,STARLINK-3708,PAYLOAD,2023-09-28 21:32:57,15.0884717,0.0001252,53.2166,127.0175,111.3927,248.7199,0.0004227,6.447e-05,0.0,0 STARLINK-3708,1 52111U 22029Z   23271.89788702  .00006447  00000-0  42270-3 0  9998,2 52111  53.2166 127.0175 0001252 111.3927 248.7199 15.08847170 86007,6917.858,95.437,540.59,538.857,0.0
52111.0,STARLINK-3708,PAYLOAD,2023-09-29 00:43:43,15.08848287,0.0001232,53.2165,126.4231,110.3108,249.8017,0.00040484,6.162e-05,0.0,0 STARLINK-3708,1 52111U 22029Z   23272.03036642  .00006162  00000-0  40484-3 0  9993,2 52111  53.2165 126.4231 0001232 110.3108 249.8017 15.08848287 86023,6917.855,95.437,540.572,538.868,0.0
52111.0,STARLINK-3708,PAYLOAD,2023-09-29 18:12:57,15.0884809,0.0001152,53.2165,123.1512,97.3859,262.7264,0.00018641,2.681e-05,0.0,0 STARLINK-3708,1 52111U 22029Z   23272.75900437  .00002681  00000-0  18641-3 0  9996,2 52111  53.2165 123.1512 0001152  97.3859 262.7264 15.08848090 86139,6917.856,95.437,540.518,538.924,0.0
52111.0,STARLINK-3708,PAYLOAD,2023-09-29 22:59:07,15.0885339,0.0001172,53.2165,122.2588,96.7523,263.3602,0.00028713,4.286e-05,0.0,0 STARLINK-3708,1 52111U 22029Z   23272.95772165  .00004286  00000-0  28713-3 0  9997,2 52111  53.2165 122.2588 0001172  96.7523 263.3602 15.08853390 86160,6917.839,95.437,540.515,538.894,0.0
52111.0,STARLINK-3708,PAYLOAD,2023-09-30 18:03:45,15.08837466,0.0001615,53.2177,118.6929,92.1001,268.0176,-8.8327e-05,-1.693e-05,0.0,0 STARLINK-3708,1 52111U 22029Z   23273.75260825 -.00001693  00000-0 -88327-4 0  9990,2 52111  53.2177 118.6929 0001615  92.1001 268.0176 15.08837466 86281,6917.888,95.438,540.87,538.636,0.0
52111.0,STARLINK-3708,PAYLOAD,2023-10-01 13:08:22,15.08844838,0.0001305,53.2152,115.1244,92.8368,267.2773,0.00011909,1.608e-05,0.0,0 STARLINK-3708,1 52111U 22029Z   23274.54748458  .00001608  00000-0  11909-3 0  9996,2 52111  53.2152 115.1244 0001305  92.8368 267.2773 15.08844838 86404,6917.866,95.437,540.633,538.828,0.0
52111.0,STARLINK-3708,PAYLOAD,2023-10-01 17:54:31,15.08850117,0.0001111,53.2154,114.2337,82.5825,277.5293,0.00011213,1.498e-05,0.0,0 STARLINK-3708,1 52111U 22029Z   23274.74620127  .00001498  00000-0  11213-3 0  9995,2 52111  53.2154 114.2337 0001111  82.5825 277.5293 15.08850117 86439,6917.849,95.437,540.483,538.946,0.0
52111.0,STARLINK-3708,PAYLOAD,2023-10-01 21:05:17,15.08854465,0.0001098,53.2156,113.6387,87.0744,273.0374,0.00019144,2.761e-05,0.0,0 STARLINK-3708,1 52111U 22029Z   23274.87867864  .00002761  00000-0  19144-3 0  9995,2 52111  53.2156 113.6387 0001098  87.0744 273.0374 15.08854465 86456,6917.836,95.437,540.461,538.942,0.0
52111.0,STARLINK-3708,PAYLOAD,2023-10-02 19:20:42,15.08838665,0.0001287,53.2168,109.4758,75.4482,284.6652,7.2145e-05,8.6e-06,0.0,0 STARLINK-3708,1 52111U 22029Z   23275.80604940  .00000860  00000-0  72145-4 0  9992,2 52111  53.2168 109.4758 0001287  75.4482 284.6652 15.08838665 86590,6917.884,95.438,540.64,538.859,0.0
52111.0,STARLINK-3708,PAYLOAD,2023-10-03 06:28:24,15.08842977,0.0001232,53.2159,107.3944,82.8459,277.2673,0.00010552,1.392e-05,0.0,0 STARLINK-3708,1 52111U 22029Z   23276.26972755  .00001392  00000-0  10552-3 0  9999,2 52111  53.2159 107.3944 0001232  82.8459 277.2673 15.08842977 86660,6917.871,95.437,540.589,538.884,0.0
52111.0,STARLINK-3708,PAYLOAD,2023-10-03 19:11:29,15.0885084,0.0001317,53.2164,105.015,80.8704,279.2437,0.00014659,2.047e-05,0.0,0 STARLINK-3708,1 52111U 22029Z   23276.79964351  .00002047  00000-0  14659-3 0  9990,2 52111  53.2164 105.0150 0001317  80.8704 279.2437 15.08850840 86742,6917.847,95.437,540.623,538.801,0.0
52111.0,STARLINK-3708,PAYLOAD,2023-10-04 12:40:43,15.08845675,0.0001386,53.2166,101.7436,84.8363,275.2788,0.00021511,3.138e-05,0.0,0 STARLINK-3708,1 52111U 22029Z   23277.52828604  .00003138  00000-0  21511-3 0  9999,2 52111  53.2166 101.7436 0001386  84.8363 275.2788 15.08845675 86852,6917.863,95.437,540.687,538.769,0.0
52111.0,STARLINK-3708,PAYLOAD,2023-10-04 19:02:16,15.08852292,0.0001281,53.2169,100.5543,90.9909,269.123,0.00032594,4.905e-05,0.0,0 STARLINK-3708,1 52111U 22029Z   23277.79324283  .00004905  00000-0  32594-3 0  9998,2 52111  53.2169 100.5543 0001281  90.9909 269.1230 15.08852292 86890,6917.843,95.437,540.594,538.822,0.0
52111.0,STARLINK-3708,PAYLOAD,2023-10-05 12:31:30,15.0884483,0.0001423,53.2173,97.2835,92.8166,267.2989,0.00021395,3.119e-05,0.0,0 STARLINK-3708,1 52111U 22029Z   23278.52188330  .00003119  00000-0  21395-3 0  9994,2 52111  53.2173  97.2835 0001423  92.8166 267.2989 15.08844830 87008,6917.866,95.437,540.715,538.746,0.0
52111.0,STARLINK-3708,PAYLOAD,2023-10-05 18:53:03,15.08847355,0.0001404,53.2168,96.0945,88.0452,272.0701,0.00037004,5.607e-05,0.0,0 STARLINK-3708,1 52111U 22029Z   23278.78684311  .00005607  00000-0  37004-3 0  9990,2 52111  53.2168  96.0945 0001404  88.0452 272.0701 15.08847355 87040,6917.858,95.437,540.694,538.752,0.0
52111.0,STARLINK-3708,PAYLOAD,2023-10-06 12:22:18,15.08838165,0.0001295,53.2174,92.8223,94.5159,265.5981,0.0001994,2.887e-05,0.0,0 STARLINK-3708,1 52111U 22029Z   23279.51548640  .00002887  00000-0  19940-3 0  9992,2 52111  53.2174  92.8223 0001295  94.5159 265.5981 15.08838165 87152,6917.886,95.438,540.647,538.855,0.0
52111.0,STARLINK-3708,PAYLOAD,2023-10-06 18:43:50,15.08844845,0.0001318,53.2168,91.6339,91.7757,268.3386,0.00051033,7.844e-05,0.0,0 STARLINK-3708,1 52111U 22029Z   23279.78044655  .00007844  00000-0  51033-3 0  9995,2 52111  53.2168  91.6339 0001318  91.7757 268.3386 15.08844845 87195,6917.866,95.437,540.642,538.819,0.0
52111.0,STARLINK-3708,PAYLOAD,2023-10-07 10:37:42,15.0884192,0.0001328,53.2168,88.6616,92.5505,267.5639,0.00038327,5.817e-05,0.0,0 STARLINK-3708,1 52111U 22029Z   23280.44284890  .00005817  00000-0  38327-3 0  9996,2 52111  53.2168  88.6616 0001328  92.5505 267.5639 15.08841920 87294,6917.875,95.437,540.658,538.821,0.0
52111.0,STARLINK-3708,PAYLOAD,2023-10-07 12:13:05,15.08840281,0.0001316,53.2169,88.3639,91.8867,268.2276,0.00025707,3.806e-05,0.0,0 STARLINK-3708,1 52111U 22029Z   23280.50908955  .00003806  00000-0  25707-3 0  9992,2 52111  53.2169  88.3639 0001316  91.8867 268.2276 15.08840281 87303,6917.88,95.438,540.655,538.834,0.0
52111.0,STARLINK-3708,PAYLOAD,2023-10-07 18:34:37,15.08843936,0.0001303,53.2167,87.1744,89.1766,270.9376,0.00027819,4.143e-05,0.0,0 STARLINK-3708,1 52111U 22029Z   23280.77404892  .00004143  00000-0  27819-3 0  9993,2 52111  53.2167  87.1744 0001303  89.1766 270.9376 15.08843936 87344,6917.868,95.437,540.635,538.832,0.0
52111.0,STARLINK-3708,PAYLOAD,2023-10-08 10:28:29,15.08837061,0.0001277,53.2171,84.2013,88.4381,271.6758,8.2601e-05,1.027e-05,0.0,0 STARLINK-3708,1 52111U 22029Z   23281.43645244  .00001027  00000-0  82601-4 0  9994,2 52111  53.2171  84.2013 0001277  88.4381 271.6758 15.08837061 87446,6917.889,95.438,540.638,538.871,0.0
52111.0,STARLINK-3708,PAYLOAD,2023-10-08 12:03:52,15.08836535,0.0001454,53.2179,83.9027,92.174,267.9419,7.8056e-05,9.54e-06,0.0,0 STARLINK-3708,1 52111U 22029Z   23281.50269370  .00000954  00000-0  78056-4 0  9991,2 52111  53.2179  83.9027 0001454  92.1740 267.9419 15.08836535 87451,6917.891,95.438,540.762,538.75,0.0
52111.0,STARLINK-3708,PAYLOAD,2023-10-08 20:00:48,15.08838619,0.0001469,53.2172,82.415,90.478,269.6381,9.4711e-05,1.22e-05,0.0,0 STARLINK-3708,1 52111U 22029Z   23281.83389420  .00001220  00000-0  94711-4 0  9999,2 52111  53.2172  82.4150 0001469  90.4780 269.6381 15.08838619 87504,6917.885,95.438,540.766,538.733,0.0
52111.0,STARLINK-3708,PAYLOAD,2023-10-09 10:19:16,15.08842012,0.0001534,53.2171,79.7384,94.1779,265.9388,0.00017112,2.437e-05,0.0,0 STARLINK-3708,1 52111U 22029Z   23282.43005347  .00002437  00000-0  17112-3 0  9999,2 52111  53.2171  79.7384 0001534  94.1779 265.9388 15.08842012 87590,6917.874,95.437,540.8,538.678,0.0
52111.0,STARLINK-3708,PAYLOAD,2023-10-09 18:16:11,15.08854797,0.0001422,53.2168,78.2523,89.3531,270.7624,0.00040271,6.13e-05,0.0,0 STARLINK-3708,1 52111U 22029Z   23282.76124780  .00006130  00000-0  40271-3 0  9994,2 52111  53.2168  78.2523 0001422  89.3531 270.7624 15.08854797 87649,6917.835,95.437,540.684,538.716,0.0
52111.0,STARLINK-3708,PAYLOAD,2023-10-09 19:51:34,15.088603,0.0001485,53.2167,77.9545,91.2431,268.8731,0.00052202,8.034e-05,0.0,0 STARLINK-3708,1 52111U 22029Z   23282.82748592  .00008034  00000-0  52202-3 0  9996,2 52111  53.2167  77.9545 0001485  91.2431 268.8731 15.08860300 87653,6917.818,95.436,540.711,538.656,0.0
